1 38705U 68081AF  18210.60721006 -.00000075 +00000-0 +00000-0 0  9993
2 38705 003.7835 308.8132 0258792 086.2723 276.9765 01.02056396045718
1 38714U 99025ETF 18213.05217370  .00001618  00000-0  39099-3 0  9997
2 38714  97.9108 153.8603 0222219  81.6885 280.9435 14.40376203406257
1 38715U 99025ETG 18213.08829362  .00000892  00000-0  53312-3 0  9998
2 38715  98.2076 170.9785 0161927 110.1043 251.7632 14.02930056551895
1 38716U 99025ETH 18173.27615707  .00000337  00000-0  38927-3 0  9990
2 38716  98.4192 345.8586 0274801  15.1294 345.7866 13.59896320434919
1 38717U 99025ETJ 18212.35275619 +.00000121 +00000-0 +99834-4 0  9994
2 38717 099.0287 159.9630 0070847 327.5878 184.4973 14.05467920205115
1 38718U 99025ETK 18105.21758463  .00000571  00000-0  52375-3 0  9991
2 38718  98.6052 112.7611 0211204 303.6383  54.4778 13.77163551503422
1 38720U 99025ETM 18213.00141105  .00001309  00000-0  62606-3 0  9998
2 38720  99.1512 281.8238 0053528 300.6066  58.9836 14.20236681421543
1 38721U 99025ETN 18212.38653426  .00000567  00000-0  30185-3 0  9995
2 38721  98.9511 278.5377 0081082 146.8774 213.7514 14.15705189459979
1 38722U 99025ETP 18212.85809975  .00000723  00000-0  27415-3 0  9996
2 38722  99.3854  75.3490 0247936 244.8042 112.7238 14.19151477450671
1 38723U 99025ETQ 18212.76621904  .00000705  00000-0  28999-3 0  9999
2 38723  99.4782 197.3086 0041406 252.1480 107.5181 14.30152799385847
1 38724U 99025ETR 18211.76310975  .00001205  00000-0  92378-3 0  9990
2 38724  98.7443 313.9542 0159249 320.5496  38.4155 13.89336608354282
1 38725U 99025ETS 18213.38892981  .00000481  00000-0  25678-3 0  9997
2 38725  98.9195 279.3541 0049056  99.6822 260.9898 14.17322684385397
1 38726U 99025ETT 18204.66957798 +.00000802 +00000-0 +35515-3 0  9995
2 38726 099.2031 015.3316 0090479 102.3967 258.7354 14.23941980378887
1 38727U 99025ETU 18212.79767897 +.00000612 +00000-0 +46861-3 0  9993
2 38727 098.7036 328.6622 0120924 128.7984 032.2351 13.93443566342737
1 38728U 99025ETV 18212.92458541 +.00000300 +00000-0 +90678-4 0  9992
2 38728 099.2704 250.3661 0109978 174.8705 310.7325 14.47332650265492
1 38729U 99025ETW 18150.14211210  .00000165  00000-0  13838-3 0  9999
2 38729  99.1788 116.2221 0097175 320.8458  38.5702 13.99697917446502
1 38783U 99025ETX 18212.35653992 +.00000525 +00000-0 +12840-3 0  9990
2 38783 098.6619 268.4282 0308843 263.9745 092.6169 14.32248467412342
1 38784U 99025ETY 18212.88880912  .00001616  00000-0  32338-3 0  9999
2 38784  99.4217 352.6755 0077314 214.6114 302.7417 14.61695281365380
1 38785U 99025ETZ 18182.73905525 +.00000958 +00000-0 +59495-3 0  9999
2 38785 098.0081 359.9686 0219504 330.5270 028.3664 13.95858487439346
1 38786U 99025EUA 18211.56683952 +.00002019 +00000-0 +18962-2 0  9994
2 38786 099.5939 126.9582 0286735 033.1715 328.7050 13.65869685187831
1 38787U 99025EUB 18210.73776944 +.00000355 +00000-0 +36659-3 0  9992
2 38787 098.3295 034.4232 0244899 085.7467 334.7350 13.68686651426661
1 38788U 99025EUC 13272.64096877 +.00005550 +00000-0 +15853-2 0  9990
2 38788 097.9457 057.9692 0206911 195.4651 169.0590 14.33690671159943
1 38789U 99025EUD 18212.57210855  .00000059  00000-0  30281-4 0  9999
2 38789  98.8047 330.8156 0245284  27.0000  28.8992 14.32434037413426
1 38790U 99025EUE 18213.37532893  .00000484  00000-0  27857-3 0  9995
2 38790  98.9718 267.9996 0083493 206.9465 152.7358 14.12275950423273
1 38791U 99025EUF 14249.56237221 +.00001857 +00000-0 +93251-3 0  9995
2 38791 099.2129 005.8109 0023924 308.9751 050.9292 14.17697075184139
1 38792U 99025EUG 18210.46419477 +.00001020 +00000-0 +13247-3 0  9991
2 38792 099.6198 208.0769 0104067 316.7533 042.5537 14.80173187416974
1 38793U 99025EUH 18212.38093927  .00000946  00000-0  28226-3 0  9992
2 38793  98.7081 268.1826 0114549 141.0934 278.1889 14.41674991346578
1 38794U 99025EUJ 18210.20323388  .00000515  00000-0  51439-3 0  9993
2 38794  99.0529   4.0104 0217337 252.5593 106.6558 13.72525367390622
1 38795U 99025EUK 18212.38732598 -.00000350  00000-0 -37940-3 0  9992
2 38795  98.7275 268.2123 0527298  23.3008 339.1099 13.20227087429220
1 38796U 99025EUL 15071.13344642 +.00013818 +00000-0 +32955-2 0  9996
2 38796 098.9131 206.6190 0067903 266.2018 093.1102 14.52426093236003
1 38797U 99025EUM 18200.55332372 -.00000133  00000-0 -95343-4 0  9997
2 38797  99.5899 117.2886 0250009 251.1494  99.3846 13.59789607366177
1 38798U 99025EUN 18212.13560486  .00000463  00000-0  71486-3 0  9999
2 38798  98.8150 339.4534 0417093 242.1306 113.6982 13.25769910409827
1 38799U 99025EUP 18213.42322476  .00000079  00000-0  38529-4 0  9993
2 38799  98.6295 286.6203 0211413  61.4237 300.8043 14.30367805409670
1 38801U 99025EUR 18212.62730418  .00000409  00000-0  11983-3 0  9998
2 38801  98.4194 349.5812 0387384 214.5700 211.3992 14.13417730437496
1 38802U 99025EUS 17106.39671985  .00000208  00000-0  11022-3 0  9998
2 38802  98.5701 167.6672 0046104  32.0447 328.4115 14.13138297412980
1 38803U 99025EUT 18209.27438378 +.00000762 +00000-0 +49035-3 0  9998
2 38803 099.0233 152.1106 0084826 023.8547 336.6516 14.04433403222500
1 38804U 99025EUU 18209.11890862 +.00000118 +00000-0 +12149-3 0  9993
2 38804 097.5354 322.5963 0401282 099.5042 265.1680 13.56011829458544
1 38806U 99025EUW 15132.23433412 +.00002204 +00000-0 +15398-2 0  9990
2 38806 098.5611 298.2737 0140796 359.9035 001.2428 13.94834523234004
1 38807U 99025EUX 18213.41047671  .00000769  00000-0  76863-3 0  9991
2 38807  98.4671  77.2682 0235375 142.6683 219.1085 13.68871071388850
1 38808U 99025EUY 18212.95154824  .00000760  00000-0  25389-3 0  9997
2 38808  98.8201 273.4304 0164104 337.3499  22.0500 14.33269701500329
1 38809U 99025EUZ 18213.31336531 -.00000053  00000-0 -38877-5 0  9991
2 38809  98.8251 257.7768 0240575  90.3784 272.4956 14.12039220380650
1 38810U 99025EVA 18212.55253652  .00000447  00000-0  31453-3 0  9996
2 38810  99.3316 321.4930 0134056 235.5062 182.6980 13.99335083395967
1 38811U 99025EVB 18208.32996139 +.00000949 +00000-0 +49738-3 0  9993
2 38811 099.0623 241.4439 0050479 297.7355 061.8703 14.16144057259062
1 38812U 99025EVC 18211.94193152 +.00000412 +00000-0 +47474-3 0  9990
2 38812 098.4254 016.2954 0275950 284.6979 233.4549 13.59224720095500
1 38813U 99025EVD 18208.35665371 +.00000131 +00000-0 +93279-4 0  9992
2 38813 099.3449 056.1696 0006809 132.3294 227.8455 14.14793732100985
1 38814U 99025EVE 18175.51048774  .00002781  00000-0  11666-2 0  9997
2 38814  98.3592 280.7544 0114985 124.9145 243.0275 14.23141078450166
1 38815U 99025EVF 15250.35375413 +.00005697 +00000-0 +12659-2 0  9996
2 38815 099.7063 295.5489 0037512 304.9683 051.8222 14.57074174330314
1 38816U 99025EVG 18209.90232629 +.00000697 +00000-0 +25527-3 0  9990
2 38816 098.8609 245.0258 0109240 007.3347 352.9404 14.32915465404436
1 38817U 99025EVH 18207.34564453 +.00000429 +00000-0 +53956-3 0  9990
2 38817 098.5842 031.0972 0308661 172.0397 188.5805 13.50335570293821
1 38818U 99025EVJ 18212.45793003  .00000156  00000-0  69211-4 0  9993
2 38818  98.5566 291.9970 0096581 183.5766 234.7174 14.33077406312572
1 38819U 99025EVK 18208.34612448 +.00000090 +00000-0 +66720-4 0  9999
2 38819 098.7429 244.6840 0085269 008.7058 047.1825 14.14851851253292
1 38820U 99025EVL 18212.30570899  .00000889  00000-0  68537-3 0  9998
2 38820  98.2342  25.4835 0284457 275.1218 207.1000 13.77873225300158
1 38821U 99025EVM 18178.34931892  .00000703  00000-0  55967-3 0  9996
2 38821  98.5209 221.5011 0125198 192.5970 229.7404 13.90544948298451
1 38822U 99025EVN 18172.85697008  .00000829  00000-0  61627-3 0  9994
2 38822  98.1394  43.3719 0128082  79.6580 281.8993 13.93504087496348
1 38823U 99025EVP 18213.27738268  .00000334  00000-0  25432-3 0  9996
2 38823  99.2978 227.6504 0117008 198.3296 161.3632 13.97555057502647
1 38824U 99025EVQ 18213.37868498  .00000454  00000-0  35524-3 0  9993
2 38824  99.3126 269.1541 0120926   5.1187 355.1179 13.94136417356405
1 38825U 99025EVR 18211.22258368 +.00000065 +00000-0 +87283-4 0  9993
2 38825 098.9736 354.0957 0228066 117.8373 003.7636 13.76645655223175
1 38826U 99025EVS 18212.21919250  .00000528  00000-0  25428-3 0  9994
2 38826  99.8926   1.5991 0055162 129.7503 230.8550 14.23009196384062
1 38827U 99025EVT 18209.40324909 +.00000373 +00000-0 +14246-3 0  9997
2 38827 098.6917 269.2696 0247916 259.4703 097.8459 14.21367696394158
1 38828U 99025EVU 18212.15856444  .00001397  00000-0  25195-3 0  9990
2 38828  99.5366 183.4116 0301239 201.0393 157.8183 14.43213162385083
1 38829U 99025EVV 18212.86962833 +.00000221 +00000-0 +16436-3 0  9992
2 38829 099.0101 246.8754 0042780 011.4917 348.7217 14.04725737263184
1 38831U 99025EVX 17123.79508164 +.00000448 +00000-0 +31362-3 0  9996
2 38831 099.2328 119.6423 0059276 193.9694 291.5662 14.02916298440577
1 38832U 99025EVY 18213.14366028  .00000301  00000-0  24028-3 0  9997
2 38832  99.2386 178.5652 0097642 193.7316 166.1187 13.96660927358000
1 38836U 80073N   18212.13554663  .00001351  00000-0  58746-3 0  9996
2 38836  81.2169 354.1612 0037318 275.6452 206.8143 14.23271714301260
1 38837U 80073P   18212.04495549 +.00001003 +00000-0 +37886-3 0  9990
2 38837 081.2135 329.5215 0037935 220.5456 263.2061 14.30283072266249
1 38838U 80073Q   18212.06973766 +.00001006 +00000-0 +24348-3 0  9997
2 38838 081.2143 119.1151 0019642 347.5279 012.5426 14.52334669810630
1 38839U 83022L   18212.06793658  .00005854  00000-0  65015-3 0  9996
2 38839  98.4529 306.7475 0005475  58.2111 301.9636 14.87619132319521
1 38840U 83022M   18212.83358976 +.00000675 +00000-0 +22555-3 0  9991
2 38840 098.4491 218.8458 0011137 310.0548 172.8650 14.40524160359069
1 38841U 83022N   18212.87001363  .00001736  00000-0  40109-3 0  9995
2 38841  98.3757 246.4864 0012485 176.4557 306.6355 14.56427529361399
1 38842U 05017F   18212.06715542  .00000273  00000-0  39279-4 0  9998
2 38842  97.9716 158.0397 0063490 128.8893 291.2759 14.82975958426713
1 38843U 74029D   16029.71129368 -.00000003 +00000-0 +64117-4 0  9990
2 38843 064.9749 135.9858 0053305 225.1907 134.3498 13.95535389359772
